TOMORROW-S1             
1 60479U 24149M   26068.72470524  .00008620  00000+0  28856-3 0  9996
2 60479  97.3791 149.6044 0001819 207.2040 152.9106 15.31198362 86867
STARLINK-34510          
1 64596U 25137C   26068.89012468  .00028003  00000+0  95347-3 0  9991
2 64596  53.1574 334.4486 0001099 105.7139 254.3983 15.30218974 40765
